{
  "type": "FeatureCollection",
  "features": [
    {
      "type": "Feature",
      "properties": {
        "OBJECT_NAME": "CYGFM04",
        "OBJECT_ID": "2016-078B",
        "EPOCH": "2025-11-30T01:43:57.840672",
        "MEAN_MOTION": 15.49335862,
        "ECCENTRICITY": 0.0008526,
        "INCLINATION": 34.9334,
        "RA_OF_ASC_NODE": 104.967,
        "ARG_OF_PERICENTER": 91.6445,
        "MEAN_ANOMALY": 268.5253,
        "EPHEMERIS_TYPE": 0,
        "CLASSIFICATION_TYPE": "U",
        "NORAD_CAT_ID": 41885,
        "ELEMENT_SET_NO": 999,
        "REV_AT_EPOCH": 49797,
        "BSTAR": 0.0007923,
        "MEAN_MOTION_DOT": 0.00045009,
        "MEAN_MOTION_DDOT": 0,
        "norad_id": 41885,
        "name": "CYGFM04",
        "group": "weather",
        "longitude_deg": NaN,
        "latitude_deg": NaN,
        "alt_km": NaN,
        "orbit_class": "HEO",
        "timestamp": "2025-11-30T09:33:02.506419+00:00"
      },
      "geometry": {
        "type": "Point",
        "coordinates": [
          NaN,
          NaN
        ]
      }
    },
    {
      "type": "Feature",
      "properties": {
        "OBJECT_NAME": "CYGFM02",
        "OBJECT_ID": "2016-078C",
        "EPOCH": "2025-11-30T01:56:50.968608",
        "MEAN_MOTION": 15.50904637,
        "ECCENTRICITY": 0.0010065,
        "INCLINATION": 34.9422,
        "RA_OF_ASC_NODE": 103.398,
        "ARG_OF_PERICENTER": 90.8172,
        "MEAN_ANOMALY": 269.3704,
        "EPHEMERIS_TYPE": 0,
        "CLASSIFICATION_TYPE": "U",
        "NORAD_CAT_ID": 41886,
        "ELEMENT_SET_NO": 999,
        "REV_AT_EPOCH": 49810,
        "BSTAR": 0.00045641,
        "MEAN_MOTION_DOT": 0.0002735,
        "MEAN_MOTION_DDOT": 0,
        "norad_id": 41886,
        "name": "CYGFM02",
        "group": "weather",
        "longitude_deg": NaN,
        "latitude_deg": NaN,
        "alt_km": NaN,
        "orbit_class": "HEO",
        "timestamp": "2025-11-30T09:33:02.506427+00:00"
      },
      "geometry": {
        "type": "Point",
        "coordinates": [
          NaN,
          NaN
        ]
      }
    },
    {
      "type": "Feature",
      "properties": {
        "OBJECT_NAME": "CYGFM01",
        "OBJECT_ID": "2016-078D",
        "EPOCH": "2025-11-30T03:42:34.708032",
        "MEAN_MOTION": 15.47504612,
        "ECCENTRICITY": 0.0009168,
        "INCLINATION": 34.9408,
        "RA_OF_ASC_NODE": 131.7352,
        "ARG_OF_PERICENTER": 51.9929,
        "MEAN_ANOMALY": 308.1619,
        "EPHEMERIS_TYPE": 0,
        "CLASSIFICATION_TYPE": "U",
        "NORAD_CAT_ID": 41887,
        "ELEMENT_SET_NO": 999,
        "REV_AT_EPOCH": 49775,
        "BSTAR": 0.00045413,
        "MEAN_MOTION_DOT": 0.00024111,
        "MEAN_MOTION_DDOT": 0,
        "norad_id": 41887,
        "name": "CYGFM01",
        "group": "weather",
        "longitude_deg": NaN,
        "latitude_deg": NaN,
        "alt_km": NaN,
        "orbit_class": "HEO",
        "timestamp": "2025-11-30T09:33:02.506435+00:00"
      },
      "geometry": {
        "type": "Point",
        "coordinates": [
          NaN,
          NaN
        ]
      }
    },
    {
      "type": "Feature",
      "properties": {
        "OBJECT_NAME": "CYGFM08",
        "OBJECT_ID": "2016-078E",
        "EPOCH": "2025-11-30T02:11:11.326848",
        "MEAN_MOTION": 15.48667349,
        "ECCENTRICITY": 0.0010675,
        "INCLINATION": 34.9441,
        "RA_OF_ASC_NODE": 115.2855,
        "ARG_OF_PERICENTER": 77.9281,
        "MEAN_ANOMALY": 282.2636,
        "EPHEMERIS_TYPE": 0,
        "CLASSIFICATION_TYPE": "U",
        "NORAD_CAT_ID": 41888,
        "ELEMENT_SET_NO": 999,
        "REV_AT_EPOCH": 49797,
        "BSTAR": 0.00044789,
        "MEAN_MOTION_DOT": 0.00024786,
        "MEAN_MOTION_DDOT": 0,
        "norad_id": 41888,
        "name": "CYGFM08",
        "group": "weather",
        "longitude_deg": NaN,
        "latitude_deg": NaN,
        "alt_km": NaN,
        "orbit_class": "HEO",
        "timestamp": "2025-11-30T09:33:02.506441+00:00"
      },
      "geometry": {
        "type": "Point",
        "coordinates": [
          NaN,
          NaN
        ]
      }
    },
    {
      "type": "Feature",
      "properties": {
        "OBJECT_NAME": "CYGFM07",
        "OBJECT_ID": "2016-078G",
        "EPOCH": "2025-11-29T18:37:08.854752",
        "MEAN_MOTION": 15.49217232,
        "ECCENTRICITY": 0.0008856,
        "INCLINATION": 34.9457,
        "RA_OF_ASC_NODE": 106.4002,
        "ARG_OF_PERICENTER": 93.9818,
        "MEAN_ANOMALY": 266.1916,
        "EPHEMERIS_TYPE": 0,
        "CLASSIFICATION_TYPE": "U",
        "NORAD_CAT_ID": 41890,
        "ELEMENT_SET_NO": 999,
        "REV_AT_EPOCH": 49794,
        "BSTAR": 0.00039066,
        "MEAN_MOTION_DOT": 0.00022013,
        "MEAN_MOTION_DDOT": 0,
        "norad_id": 41890,
        "name": "CYGFM07",
        "group": "weather",
        "longitude_deg": NaN,
        "latitude_deg": NaN,
        "alt_km": NaN,
        "orbit_class": "HEO",
        "timestamp": "2025-11-30T09:33:02.506448+00:00"
      },
      "geometry": {
        "type": "Point",
        "coordinates": [
          NaN,
          NaN
        ]
      }
    },
    {
      "type": "Feature",
      "properties": {
        "OBJECT_NAME": "CYGFM03",
        "OBJECT_ID": "2016-078H",
        "EPOCH": "2025-11-30T01:29:46.480128",
        "MEAN_MOTION": 15.49138474,
        "ECCENTRICITY": 0.0008218,
        "INCLINATION": 34.9415,
        "RA_OF_ASC_NODE": 106.4351,
        "ARG_OF_PERICENTER": 82.0725,
        "MEAN_ANOMALY": 278.0929,
        "EPHEMERIS_TYPE": 0,
        "CLASSIFICATION_TYPE": "U",
        "NORAD_CAT_ID": 41891,
        "ELEMENT_SET_NO": 999,
        "REV_AT_EPOCH": 49796,
        "BSTAR": 0.00045127,
        "MEAN_MOTION_DOT": 0.00025371,
        "MEAN_MOTION_DDOT": 0,
        "norad_id": 41891,
        "name": "CYGFM03",
        "group": "weather",
        "longitude_deg": NaN,
        "latitude_deg": NaN,
        "alt_km": NaN,
        "orbit_class": "HEO",
        "timestamp": "2025-11-30T09:33:02.506454+00:00"
      },
      "geometry": {
        "type": "Point",
        "coordinates": [
          NaN,
          NaN
        ]
      }
    },
    {
      "type": "Feature",
      "properties": {
        "OBJECT_NAME": "FENGYUN 3D",
        "OBJECT_ID": "2017-072A",
        "EPOCH": "2025-11-30T04:38:16.126944",
        "MEAN_MOTION": 14.19677946,
        "ECCENTRICITY": 5.1e-05,
        "INCLINATION": 98.9875,
        "RA_OF_ASC_NODE": 300.3167,
        "ARG_OF_PERICENTER": 243.406,
        "MEAN_ANOMALY": 116.7063,
        "EPHEMERIS_TYPE": 0,
        "CLASSIFICATION_TYPE": "U",
        "NORAD_CAT_ID": 43010,
        "ELEMENT_SET_NO": 999,
        "REV_AT_EPOCH": 41675,
        "BSTAR": 8.6497e-05,
        "MEAN_MOTION_DOT": 1.37e-06,
        "MEAN_MOTION_DDOT": 0,
        "norad_id": 43010,
        "name": "FENGYUN 3D",
        "group": "weather",
        "longitude_deg": NaN,
        "latitude_deg": NaN,
        "alt_km": NaN,
        "orbit_class": "HEO",
        "timestamp": "2025-11-30T09:33:02.507209+00:00"
      },
      "geometry": {
        "type": "Point",
        "coordinates": [
          NaN,
          NaN
        ]
      }
    },
    {
      "type": "Feature",
      "properties": {
        "OBJECT_NAME": "NOAA 20 (JPSS-1)",
        "OBJECT_ID": "2017-073A",
        "EPOCH": "2025-11-30T02:11:44.870784",
        "MEAN_MOTION": 14.19520359,
        "ECCENTRICITY": 0.0002016,
        "INCLINATION": 98.758,
        "RA_OF_ASC_NODE": 270.5277,
        "ARG_OF_PERICENTER": 105.0952,
        "MEAN_ANOMALY": 255.0447,
        "EPHEMERIS_TYPE": 0,
        "CLASSIFICATION_TYPE": "U",
        "NORAD_CAT_ID": 43013,
        "ELEMENT_SET_NO": 999,
        "REV_AT_EPOCH": 41622,
        "BSTAR": 7.3536e-05,
        "MEAN_MOTION_DOT": 1.11e-06,
        "MEAN_MOTION_DDOT": 0,
        "norad_id": 43013,
        "name": "NOAA 20 (JPSS-1)",
        "group": "weather",
        "longitude_deg": NaN,
        "latitude_deg": NaN,
        "alt_km": NaN,
        "orbit_class": "HEO",
        "timestamp": "2025-11-30T09:33:02.507221+00:00"
      },
      "geometry": {
        "type": "Point",
        "coordinates": [
          NaN,
          NaN
        ]
      }
    }
  ]
}