CYGFM04                 
1 41885U 16078B   25334.07219723  .00045009  00000+0  79230-3 0  9997
2 41885  34.9334 104.9670 0008526  91.6445 268.5253 15.49335862497974
CYGFM02                 
1 41886U 16078C   25334.08114547  .00027350  00000+0  45641-3 0  9995
2 41886  34.9422 103.3980 0010065  90.8172 269.3704 15.50904637498109
CYGFM01                 
1 41887U 16078D   25334.15456838  .00024111  00000+0  45413-3 0  9995
2 41887  34.9408 131.7352 0009168  51.9929 308.1619 15.47504612497754
CYGFM08                 
1 41888U 16078E   25334.09110332  .00024786  00000+0  44789-3 0  9998
2 41888  34.9441 115.2855 0010675  77.9281 282.2636 15.48667349497974
CYGFM07                 
1 41890U 16078G   25333.77579693  .00022013  00000+0  39066-3 0  9997
2 41890  34.9457 106.4002 0008856  93.9818 266.1916 15.49217232497944
CYGFM03                 
1 41891U 16078H   25334.06234352  .00025371  00000+0  45127-3 0  9996
2 41891  34.9415 106.4351 0008218  82.0725 278.0929 15.49138474497962
FENGYUN 3D              
1 43010U 17072A   25334.19324221  .00000137  00000+0  86497-4 0  9994
2 43010  98.9875 300.3167 0000510 243.4060 116.7063 14.19677946416752
NOAA 20 (JPSS-1)        
1 43013U 17073A   25334.09149156  .00000111  00000+0  73536-4 0  9991
2 43013  98.7580 270.5277 0002016 105.0952 255.0447 14.19520359416222
